IRIDIUM 171             
1 43929U 19002H   24263.70966491  .00000271  00000+0  89652-4 0  9991
2 43929  86.3918 259.3422 0002510  94.9771 265.1711 14.34217582297879
IRIDIUM 170             
1 43930U 19002J   24263.73509604  .00001138  00000+0  17663-3 0  9990
2 43930  86.6038 259.1341 0002668  86.7537 273.3985 14.72252607305769
IRIDIUM 167             
1 43931U 19002K   24263.70332118  .00000237  00000+0  77611-4 0  9991
2 43931  86.3910 259.1255 0002355  92.7692 267.3773 14.34218413297877
IRIDIUM 181             
1 56726U 23068S   24263.65488579  .00000977  00000+0  28283-3 0  9992
2 56726  86.8636 317.5063 0002325 100.8210 259.3254 14.43587157 70769
IRIDIUM 177             
1 56727U 23068T   24263.73235375  .00001465  00000+0  18941-3 0  9999
2 56727  86.1916 270.4566 0002033  94.4868 265.6585 14.80200532 72367
IRIDIUM 174             
1 56728U 23068U   24263.72698283  .00001468  00000+0  18993-3 0  9990
2 56728  86.1923 270.5704 0002223  95.9653 264.1822 14.80184250 72366
IRIDIUM 178             
1 56729U 23068V   24263.65383411  .00002957  00000+0  38574-3 0  9998
2 56729  86.5731 292.5624 0002458  93.4965 266.6538 14.80232461 72350
IRIDIUM 179             
1 56730U 23068W   24263.44559993  .00003145  00000+0  41028-3 0  9995
2 56730  86.6750 297.9777 0001897  92.5046 267.6393 14.80243882 72324
